325P/Yang-Gao,e,16.7021,257.4277,343.9542,3.528919,0.1486762,0.59355314,60.6094,05/11.0/2023,2000,g 14.0,4.0
# From MPC103849
326P/Hill,e,2.4711,99.8082,278.6489,4.063259,0.1203351,0.31839624,331.9029,05/11.0/2023,2000,g 13.5,4.0
# From MPEC 2023-B57
327P/VanNess,e,36.2504,173.9839,185.0181,3.561799,0.1466222,0.56312813,36.7497,05/11.0/2023,2000,g 16.0,4.0
# From MPC109148
328P/LONEOS-Tucker,e,17.6722,341.6196,30.6041,4.190032,0.1149154,0.55273367,308.9874,05/11.0/2023,2000,g 14.5,4.0
# From MPC101101
329P/LINEAR-Catalina,e,21.7110,87.6541,343.5569,5.187487,0.0834197,0.67836194,226.6397,05/11.0/2023,2000,g 13.5,4.0
# From MPEC 2023-J29
330P/Catalina,e,15.7146,293.0807,188.8387,6.621361,0.0578473,0.54914262,141.6660,05/11.0/2023,2000,g 12.0,4.0
# From MPEC 2022-C56
331P/Gibbs,e,9.7398,216.7517,184.6059,3.005194,0.1891888,0.04131582,179.5272,05/11.0/2023,2000,g 12.0,4.0
# From MPEC 2016-K18
332P/Ikeya-Murakami,e,9.3804,3.7821,152.2949,3.087465,0.1816774,0.48930159,114.5892,05/11.0/2023,2000,g 18.0,4.0
# From MPEC 2016-EI8
332P-B/Ikeya-Murakami,e,9.3805,3.8028,152.3711,3.082329,0.1821317,0.48970701,359.9699,03/17.0/2016,2000,g 19.0,4.0
# From MPEC 2016-K18
332P-C/Ikeya-Murakami,e,9.3794,3.7825,152.2862,3.087432,0.1816804,0.48930710,114.6053,05/11.0/2023,2000,g 16.5,4.0
# From MPEC 2016-ED0
332P-D/Ikeya-Murakami,e,9.3761,3.7923,152.4393,3.081138,0.1822373,0.48977814,359.9486,03/17.0/2016,2000,g 19.0,4.0
# From MPEC 2016-ED0
332P-E/Ikeya-Murakami,e,9.3774,3.8228,152.2825,3.079877,0.1823493,0.48922008,359.9889,03/17.0/2016,2000,g 21.0,4.0
# From MPEC 2016-ED0
332P-F/Ikeya-Murakami,e,9.5293,3.4757,152.8203,3.163214,0.1751908,0.49918860,359.8501,03/17.0/2016,2000,g 21.0,4.0
# From MPEC 2016-ED0
332P-G/Ikeya-Murakami,e,9.2523,3.6955,154.4000,3.050519,0.1849880,0.49200362,359.9006,03/19.0/2016,2000,g 19.0,4.0
# From MPC100285
332P-H/Ikeya-Murakami,e,9.3800,3.7822,152.2868,3.087614,0.1816643,0.48934254,114.5300,05/11.0/2023,2000,g 19.0,4.0
# From MPEC 2016-ED0
332P-I/Ikeya-Murakami,e,9.3791,3.8048,152.3297,3.081767,0.1821815,0.48955490,359.9360,03/17.0/2016,2000,g 20.5,2.0
# From MPEC 2016-EI8
332P-J/Ikeya-Murakami,e,9.4296,3.6729,152.7712,3.115165,0.1792596,0.49429435,359.8613,03/17.0/2016,2000,g 20.5,2.0
# From MPEC 2020-L06
333P/LINEAR,e,132.0146,115.6755,25.9889,4.221510,0.1136324,0.73637595,295.4282,05/11.0/2023,2000,g 15.0,4.0
# From MPEC 2023-J29
334P/NEAT,e,20.3894,90.5572,90.0752,6.834437,0.0551633,0.35063184,119.5724,05/11.0/2023,2000,g 10.5,4.0
# From MPEC 2021-U31
335P/Gibbs,e,7.2928,330.8412,162.3045,3.578479,0.1455983,0.54626991,39.6015,05/11.0/2023,2000,g 17.0,4.0
# From MPC105244
336P/McNaught,e,17.8243,298.2746,308.6610,5.036687,0.0871940,0.44384797,199.9262,05/11.0/2023,2000,g 13.5,4.0
# From MPEC 2023-J29
337P/WISE,e,15.3677,106.0051,161.1546,3.289334,0.1652122,0.49703481,51.8219,05/11.0/2023,2000,g 17.0,4.0
# From MPEC 2023-J29
338P/McNaught,e,25.3862,9.7976,4.5243,3.893006,0.1283147,0.41213983,302.2742,05/11.0/2023,2000,g 12.0,4.0
# From MPC101101
339P/Gibbs,e,5.7332,172.7231,27.4649,3.700567,0.1384528,0.63566024,344.5000,05/11.0/2023,2000,g 17.0,4.0
# From MPC133426
340P/Boattini,e,2.0781,291.7029,35.9876,4.249865,0.1124971,0.28064181,265.4110,05/11.0/2023,2000,g 14.3,4.0
# From MPEC 2023-J29
341P/Gibbs,e,3.7971,29.9678,312.2836,4.289972,0.1109232,0.41567718,280.9823,05/11.0/2023,2000,g 12.5,4.0
# From MPC101101
342P/SOHO,e,11.6666,27.7084,73.2507,3.041223,0.1858368,0.98282274,0.0000,10/19.2889/2021,2000,g  9.0,4.0
# From MPEC 2023-J29
343P/NEAT-LONEOS,e,5.5926,257.0950,137.5107,5.457783,0.0773000,0.58522878,177.0407,05/11.0/2023,2000,g 14.0,4.0
# From MPEC 2023-J29
344P/Read,e,3.4960,273.1119,140.4729,4.860213,0.0919859,0.42339987,218.7641,05/11.0/2023,2000,g 13.0,4.0
# From MPEC 2022-K19
345P/LINEAR,e,2.7275,154.5126,196.6436,4.033824,0.1216546,0.22146418,301.9199,05/11.0/2023,2000,g 12.0,4.0
# From MPEC 2022-K19
346P/Catalina,e,22.2073,102.4518,335.9719,4.472586,0.1041996,0.50343388,237.2072,05/11.0/2023,2000,g 14.0,4.0
# From MPEC 2022-K19
347P/PANSTARRS,e,11.7538,261.0182,98.4330,3.604908,0.1440001,0.38625513,349.9104,05/11.0/2023,2000,g 15.0,4.0
# From MPEC 2022-ED3
348P/PANSTARRS,e,17.7367,312.9329,135.6956,3.151863,0.1761380,0.30714388,79.6769,05/11.0/2023,2000,g 14.0,4.0
# From MPEC 2022-K19
349P/Lemmon,e,5.4896,331.7567,255.8538,3.577009,0.1456881,0.29841952,304.2947,05/11.0/2023,2000,g 14.0,4.0
# From MPC111775
350P/McNaught,e,7.3649,65.2943,139.7317,4.083450,0.1194437,0.09373637,235.7500,05/11.0/2023,2000,g 14.0,4.0
# From MPC105244
351P/Wiegert-PANSTARRS,e,12.7778,283.4135,352.6553,4.439751,0.1053577,0.29499099,287.7661,05/11.0/2023,2000,g 12.5,4.0
# From MPEC 2023-J29
352P/Skiff,e,21.0147,28.0000,309.3746,6.648125,0.0574983,0.61762976,123.5283,05/11.0/2023,2000,g 13.2,4.0
# From MPEC 2020-AA5
353P/McNaught,e,28.4087,121.5139,230.4959,4.170601,0.1157194,0.47029898,227.2941,05/11.0/2023,2000,g 14.5,4.0
# From MPC105545
354P/LINEAR,e,5.2507,320.0934,132.6409,2.290704,0.2842829,0.12491246,315.7191,05/11.0/2023,2000,g 15.5,4.0
# From MPEC 2023-CD7
355P/LINEAR-NEAT,e,11.0470,51.4337,336.3233,3.468917,0.1525504,0.50789924,310.2057,05/11.0/2023,2000,g 15.5,2.0
# From MPEC 2022-F14
356P/WISE,e,9.6373,160.7886,226.0822,4.156270,0.1163184,0.35598475,228.8315,05/11.0/2023,2000,g 14.0,4.0
# From MPC114609
357P/Hill,e,6.3165,44.5581,1.4195,4.457431,0.1047315,0.43590864,189.1022,05/11.0/2023,2000,g 15.5,4.0
# From MPEC 2020-HN5
358P/PANSTARRS,e,11.0599,85.6990,299.7614,3.147249,0.1765255,0.23911822,327.5045,05/11.0/2023,2000,g 18.0,4.0
# From MPC110086
359P/LONEOS,e,10.2643,149.7474,200.2946,4.640480,0.0985961,0.32400057,205.7082,05/11.0/2023,2000,g 13.5,4.0
# From MPC108599
360P/WISE,e,24.1104,2.1890,354.2194,3.699286,0.1385247,0.49929135,289.1251,05/11.0/2023,2000,g 19.5,6.0
# From MPEC 2023-CD7
361P/Spacewatch,e,13.9035,203.2593,219.0120,4.934794,0.0899085,0.43919184,159.2961,05/11.0/2023,2000,g 12.0,4.0
# From MPEC 2017-V13
362P/,e,15.5569,192.5452,53.5615,3.972581,0.1244787,0.27870733,305.6693,05/11.0/2023,2000,g 12.9,2.0
# From MPC114609
363P/Lemmon,e,5.4011,146.8652,340.8651,3.570468,0.1460886,0.51951862,279.3242,05/11.0/2023,2000,g 17.5,4.0
# From MPEC 2023-J95
364P/PANSTARRS,e,12.1376,46.1480,212.0202,2.879434,0.2017174,0.72172076,359.3911,05/11.0/2023,2000,g 17.0,2.0
# From MPC111775
365P/PANSTARRS,e,9.8444,86.3069,67.7658,3.156289,0.1757676,0.58133093,333.3931,05/11.0/2023,2000,g 17.0,4.0
# From MPC114610
366P/Spacewatch,e,8.8569,70.7628,153.0234,3.497302,0.1506969,0.34811755,264.8806,05/11.0/2023,2000,g 15.0,4.0
# From MPC112395
367P/Catalina,e,8.4592,58.7171,172.7629,3.508364,0.1499848,0.27973393,268.2052,05/11.0/2023,2000,g 17.5,2.0
# From MPC114610
368P/NEAT,e,15.4833,257.8296,118.9534,5.530377,0.0757830,0.62668319,128.6938,05/11.0/2023,2000,g 14.0,4.0
# From MPC114610
369P/Hill,e,10.3248,47.2925,13.1622,4.381142,0.1074789,0.55555885,179.1753,05/11.0/2023,2000,g 15.0,4.0
# From MPEC 2021-F20
370P/NEAT,e,19.4278,55.0651,356.7206,6.435329,0.0603737,0.61542855,108.3541,05/11.0/2023,2000,g 13.0,4.0
# From MPC114610
371P/LINEAR-Skiff,e,17.3871,67.2363,308.5786,4.180646,0.1153026,0.47708143,193.4100,05/11.0/2023,2000,g 16.0,4.0
# From MPEC 2020-K19
372P/McNaught,e,9.5052,325.8143,27.6798,4.508758,0.1029482,0.15233114,170.8437,05/11.0/2023,2000,g 13.5,4.0
# From MPEC 2021-F20
373P/Rinner,e,13.7705,231.9657,221.0038,3.800321,0.1330374,0.39308857,198.5754,05/11.0/2023,2000,g 14.5,4.0
# From MPC114610
374P/Larson,e,10.7659,7.9116,51.4603,4.971373,0.0889180,0.46351003,140.4657,05/11.0/2023,2000,g 14.0,4.0
# From MPEC 2021-F20
375P/Hill,e,17.3622,359.9361,119.3638,5.549131,0.0753992,0.65914823,120.7787,05/11.0/2023,2000,g 16.0,4.0
# From MPEC 2022-K19
376P/LONEOS,e,1.1686,313.2779,285.1503,5.762656,0.0712476,0.51541039,94.6939,05/11.0/2023,2000,g 12.5,4.0
# From MPEC 2022-N37
377P/Scotti,e,9.0241,226.0643,354.9867,6.702159,0.0568044,0.25125795,58.7345,05/11.0/2023,2000,g  9.5,4.0
# From MPEC 2023-D41
378P/McNaught,e,19.0763,94.0076,193.5607,6.317474,0.0620710,0.46695157,58.2077,05/11.0/2023,2000,g 12.0,4.0
# From MPC115889
379P/Spacewatch,e,12.4492,183.8256,30.5743,3.503112,0.1503222,0.34587221,206.6019,05/11.0/2023,2000,g 15.0,4.0
# From MPEC 2023-C45
380P/PANSTARRS,e,8.0499,130.2031,86.9184,4.409284,0.1064515,0.34316905,154.9251,05/11.0/2023,2000,g 12.5,4.0
# From MPEC 2021-J28
381P/LINEAR-Spacewatch,e,28.3754,173.7654,173.3103,7.138571,0.0516758,0.68167621,68.3115,05/11.0/2023,2000,g 17.5,2.0
# From MPEC 2022-Y15
382P/Larson,e,8.3929,173.4576,164.6236,6.107026,0.0653069,0.28305429,32.9509,05/11.0/2023,2000,g  8.0,4.0
# From MPEC 2022-OB6
383P/Christensen,e,12.3266,207.8188,133.7879,3.547253,0.1475251,0.59924522,190.6683,05/11.0/2023,2000,g 18.0,4.0
# From MPEC 2022-OB6
384P/Kowalski,e,7.2834,354.2183,37.6581,2.899580,0.1996188,0.61624534,260.7640,05/11.0/2023,2000,g 19.5,4.0
# From MPEC 2021-F20
385P/Hill,e,16.8298,357.0569,44.3626,4.288590,0.1109768,0.40209660,147.9358,05/11.0/2023,2000,g 13.0,4.0
# From MPEC 2021-L04
386P/PANSTARRS,e,15.2333,134.9297,353.1003,4.052185,0.1208287,0.41653242,120.2121,05/11.0/2023,2000,g 14.5,4.0
# From MPEC 2021-J28
387P/Boattini,e,8.9336,259.2398,162.8140,4.797010,0.0938098,0.73687232,125.8738,05/11.0/2023,2000,g 15.0,4.0
# From MPEC 2021-S45
388P/Gibbs,e,23.8897,37.0484,42.2921,5.240962,0.0821462,0.61885532,113.8939,05/11.0/2023,2000,g 13.0,4.0
# From MPEC 2022-OB6
389P/Siding Spring,e,160.0861,218.8823,249.3975,5.633518,0.0737114,0.70456149,90.5326,05/11.0/2023,2000,g 16.0,4.0
# From MPEC 2022-OB6
390P/Gibbs,e,18.5534,152.2655,232.4139,5.811368,0.0703536,0.70742065,80.5012,05/11.0/2023,2000,g 12.0,4.0
# From MPEC 2021-F20
391P/Kowalski,e,21.2643,124.7380,187.3344,4.685241,0.0971866,0.11950423,182.3358,05/11.0/2023,2000,g  8.0,4.0
# From MPEC 2021-J28
392P/LINEAR,e,4.9318,24.8846,71.8681,6.140592,0.0647722,0.68332857,73.4996,05/11.0/2023,2000,g 14.5,4.0
# From MPEC 2021-BE3
